SZ-21 MODULE            
1 66515U 25246C   26187.71783601  .00041467  00000+0  23570-3 0  9990
2 66515  41.4706 185.5326 0006261 159.8969 200.2123 15.78167802 36823
SPACEMOBILE-006         
1 67232U 25309A   26187.45801468  .00001228  00000+0  73867-4 0  9996
2 67232  52.9956 243.3614 0010687 186.7997 173.2853 15.18641781 29529
SPACEMOBILE-008         
1 69589U 26139A   26187.69643315  .00000628  00000+0  52346-4 0  9998
2 69589  52.9937 173.9927 0004599  35.7409 324.3889 15.12793552  2938
SPACEMOBILE-009         
1 69590U 26139B   26187.69779587  .00000629  00000+0  52530-4 0  9997
2 69590  52.9928 173.9969 0004850  30.9893 329.1383 15.12686889  2936
SPACEMOBILE-010         
1 69591U 26139C   26187.69996036  .00000638  00000+0  53259-4 0  9997
2 69591  52.9932 174.0128 0004729  22.0048 338.1145 15.12518056  2947
